CCSDS_OMM_VERS = 2.0
CREATION_DATE  = 
ORIGINATOR     = 

OBJECT_NAME    = COSMOS 2242
OBJECT_ID      = 1993-024A
CENTER_NAME    = EARTH
REF_FRAME      = TEME
TIME_SYSTEM    = UTC
MEAN_ELEMENT_THEORY = SGP/SGP4

EPOCH          = 2026-03-15T22:06:05.761728
MEAN_MOTION    = 14.96575952
ECCENTRICITY   = .00149206
INCLINATION    = 82.5150
RA_OF_ASC_NODE = 260.7546
ARG_OF_PERICENTER = 286.0908
MEAN_ANOMALY   = 73.8671

EPHEMERIS_TYPE = 0
CLASSIFICATION_TYPE = U
NORAD_CAT_ID   = 22626
ELEMENT_SET_NO = 999
REV_AT_EPOCH   = 78132
BSTAR          = .18665648E-3
MEAN_MOTION_DOT = .2154E-4
MEAN_MOTION_DDOT = 0

CCSDS_OMM_VERS = 2.0
CREATION_DATE  = 
ORIGINATOR     = 

OBJECT_NAME    = SL-16 R/B
OBJECT_ID      = 1993-059B
CENTER_NAME    = EARTH
REF_FRAME      = TEME
TIME_SYSTEM    = UTC
MEAN_ELEMENT_THEORY = SGP/SGP4

EPOCH          = 2026-03-15T21:35:42.650016
MEAN_MOTION    = 14.17231932
ECCENTRICITY   = .001817
INCLINATION    = 70.9930
RA_OF_ASC_NODE = 358.0313
ARG_OF_PERICENTER = 207.3910
MEAN_ANOMALY   = 152.6258

EPHEMERIS_TYPE = 0
CLASSIFICATION_TYPE = U
NORAD_CAT_ID   = 22803
ELEMENT_SET_NO = 999
REV_AT_EPOCH   = 68041
BSTAR          = .92636273E-4
MEAN_MOTION_DOT = .139E-5
MEAN_MOTION_DDOT = 0

CCSDS_OMM_VERS = 2.0
CREATION_DATE  = 
ORIGINATOR     = 

OBJECT_NAME    = ARIANE 40 R/B
OBJECT_ID      = 1993-061H
CENTER_NAME    = EARTH
REF_FRAME      = TEME
TIME_SYSTEM    = UTC
MEAN_ELEMENT_THEORY = SGP/SGP4

EPOCH          = 2026-03-15T15:13:11.424000
MEAN_MOTION    = 14.32864133
ECCENTRICITY   = .0009572
INCLINATION    = 98.4905
RA_OF_ASC_NODE = 143.4042
ARG_OF_PERICENTER = 265.4443
MEAN_ANOMALY   = 94.5648

EPHEMERIS_TYPE = 0
CLASSIFICATION_TYPE = U
NORAD_CAT_ID   = 22830
ELEMENT_SET_NO = 999
REV_AT_EPOCH   = 69495
BSTAR          = .82609565E-4
MEAN_MOTION_DOT = .182E-5
MEAN_MOTION_DDOT = 0

CCSDS_OMM_VERS = 2.0
CREATION_DATE  = 
ORIGINATOR     = 

OBJECT_NAME    = COSMOS 2278
OBJECT_ID      = 1994-023A
CENTER_NAME    = EARTH
REF_FRAME      = TEME
TIME_SYSTEM    = UTC
MEAN_ELEMENT_THEORY = SGP/SGP4

EPOCH          = 2026-03-15T23:06:28.673568
MEAN_MOTION    = 14.14379478
ECCENTRICITY   = .00084935
INCLINATION    = 71.0547
RA_OF_ASC_NODE = 161.9745
ARG_OF_PERICENTER = 2.0728
MEAN_ANOMALY   = 358.0428

EPHEMERIS_TYPE = 0
CLASSIFICATION_TYPE = U
NORAD_CAT_ID   = 23087
ELEMENT_SET_NO = 999
REV_AT_EPOCH   = 64569
BSTAR          = -.3169584E-4
MEAN_MOTION_DOT = -.108E-5
MEAN_MOTION_DDOT = 0

CCSDS_OMM_VERS = 2.0
CREATION_DATE  = 
ORIGINATOR     = 

OBJECT_NAME    = SL-16 R/B
OBJECT_ID      = 1994-023B
CENTER_NAME    = EARTH
REF_FRAME      = TEME
TIME_SYSTEM    = UTC
MEAN_ELEMENT_THEORY = SGP/SGP4

EPOCH          = 2026-03-15T22:27:32.783904
MEAN_MOTION    = 14.15010099
ECCENTRICITY   = .00056045
INCLINATION    = 70.9988
RA_OF_ASC_NODE = 57.7683
ARG_OF_PERICENTER = 279.4684
MEAN_ANOMALY   = 80.5805

EPHEMERIS_TYPE = 0
CLASSIFICATION_TYPE = U
NORAD_CAT_ID   = 23088
ELEMENT_SET_NO = 999
REV_AT_EPOCH   = 64697
BSTAR          = -.46639439E-4
MEAN_MOTION_DOT = -.138E-5
MEAN_MOTION_DDOT = 0

CCSDS_OMM_VERS = 2.0
CREATION_DATE  = 
ORIGINATOR     = 

OBJECT_NAME    = SL-16 R/B
OBJECT_ID      = 1994-074B
CENTER_NAME    = EARTH
REF_FRAME      = TEME
TIME_SYSTEM    = UTC
MEAN_ELEMENT_THEORY = SGP/SGP4

EPOCH          = 2026-03-15T20:00:58.654944
MEAN_MOTION    = 14.79415144
ECCENTRICITY   = .00062384
INCLINATION    = 97.7100
RA_OF_ASC_NODE = 105.4029
ARG_OF_PERICENTER = 188.7827
MEAN_ANOMALY   = 344.2153

EPHEMERIS_TYPE = 0
CLASSIFICATION_TYPE = U
NORAD_CAT_ID   = 23343
ELEMENT_SET_NO = 999
REV_AT_EPOCH   = 68815
BSTAR          = .63503306E-4
MEAN_MOTION_DOT = .424E-5
MEAN_MOTION_DDOT = 0

CCSDS_OMM_VERS = 2.0
CREATION_DATE  = 
ORIGINATOR     = 

OBJECT_NAME    = SL-16 R/B
OBJECT_ID      = 1994-077B
CENTER_NAME    = EARTH
REF_FRAME      = TEME
TIME_SYSTEM    = UTC
MEAN_ELEMENT_THEORY = SGP/SGP4

EPOCH          = 2026-03-15T23:39:20.947104
MEAN_MOTION    = 14.15563289
ECCENTRICITY   = .00027353
INCLINATION    = 70.9852
RA_OF_ASC_NODE = 339.2450
ARG_OF_PERICENTER = 204.2810
MEAN_ANOMALY   = 155.8184

EPHEMERIS_TYPE = 0
CLASSIFICATION_TYPE = U
NORAD_CAT_ID   = 23405
ELEMENT_SET_NO = 999
REV_AT_EPOCH   = 61712
BSTAR          = .15965363E-3
MEAN_MOTION_DOT = .265E-5
MEAN_MOTION_DDOT = 0

CCSDS_OMM_VERS = 2.0
CREATION_DATE  = 
ORIGINATOR     = 

OBJECT_NAME    = ARIANE 40+ R/B
OBJECT_ID      = 1995-021B
CENTER_NAME    = EARTH
REF_FRAME      = TEME
TIME_SYSTEM    = UTC
MEAN_ELEMENT_THEORY = SGP/SGP4

EPOCH          = 2026-03-15T22:53:44.168352
MEAN_MOTION    = 14.39777101
ECCENTRICITY   = .00078481
INCLINATION    = 98.4485
RA_OF_ASC_NODE = 146.3515
ARG_OF_PERICENTER = 120.0926
MEAN_ANOMALY   = 52.7564

EPHEMERIS_TYPE = 0
CLASSIFICATION_TYPE = U
NORAD_CAT_ID   = 23561
ELEMENT_SET_NO = 999
REV_AT_EPOCH   = 62014
BSTAR          = .99150081E-4
MEAN_MOTION_DOT = .267E-5
MEAN_MOTION_DDOT = 0

CCSDS_OMM_VERS = 2.0
CREATION_DATE  = 
ORIGINATOR     = 

OBJECT_NAME    = SL-16 R/B
OBJECT_ID      = 1995-058B
CENTER_NAME    = EARTH
REF_FRAME      = TEME
TIME_SYSTEM    = UTC
MEAN_ELEMENT_THEORY = SGP/SGP4

EPOCH          = 2026-03-15T15:21:02.597760
MEAN_MOTION    = 14.15499215
ECCENTRICITY   = .00105332
INCLINATION    = 71.0224
RA_OF_ASC_NODE = 167.7640
ARG_OF_PERICENTER = 115.0126
MEAN_ANOMALY   = 245.2092

EPHEMERIS_TYPE = 0
CLASSIFICATION_TYPE = U
NORAD_CAT_ID   = 23705
ELEMENT_SET_NO = 999
REV_AT_EPOCH   = 56869
BSTAR          = .13349013E-3
MEAN_MOTION_DOT = .214E-5
MEAN_MOTION_DDOT = 0

CCSDS_OMM_VERS = 2.0
CREATION_DATE  = 
ORIGINATOR     = 

OBJECT_NAME    = SL-16 R/B
OBJECT_ID      = 1996-051B
CENTER_NAME    = EARTH
REF_FRAME      = TEME
TIME_SYSTEM    = UTC
MEAN_ELEMENT_THEORY = SGP/SGP4

EPOCH          = 2026-03-15T14:51:41.747616
MEAN_MOTION    = 14.12417180
ECCENTRICITY   = .00145734
INCLINATION    = 70.7602
RA_OF_ASC_NODE = 162.6892
ARG_OF_PERICENTER = 138.8527
MEAN_ANOMALY   = 221.3695

EPHEMERIS_TYPE = 0
CLASSIFICATION_TYPE = U
NORAD_CAT_ID   = 24298
ELEMENT_SET_NO = 999
REV_AT_EPOCH   = 52248
BSTAR          = .60082154E-4
MEAN_MOTION_DOT = .62E-6
MEAN_MOTION_DDOT = 0

CCSDS_OMM_VERS = 2.0
CREATION_DATE  = 
ORIGINATOR     = 

OBJECT_NAME    = ORBVIEW 2 (SEASTAR)
OBJECT_ID      = 1997-037A
CENTER_NAME    = EARTH
REF_FRAME      = TEME
TIME_SYSTEM    = UTC
MEAN_ELEMENT_THEORY = SGP/SGP4

EPOCH          = 2026-03-15T21:36:14.764032
MEAN_MOTION    = 14.35499554
ECCENTRICITY   = .0002931
INCLINATION    = 98.8578
RA_OF_ASC_NODE = 239.3768
ARG_OF_PERICENTER = 59.1509
MEAN_ANOMALY   = 300.9964

EPHEMERIS_TYPE = 0
CLASSIFICATION_TYPE = U
NORAD_CAT_ID   = 24883
ELEMENT_SET_NO = 999
REV_AT_EPOCH   = 50936
BSTAR          = .10667599E-3
MEAN_MOTION_DOT = .26E-5
MEAN_MOTION_DDOT = 0

CCSDS_OMM_VERS = 2.0
CREATION_DATE  = 
ORIGINATOR     = 

OBJECT_NAME    = SL-16 R/B
OBJECT_ID      = 1998-043G
CENTER_NAME    = EARTH
REF_FRAME      = TEME
TIME_SYSTEM    = UTC
MEAN_ELEMENT_THEORY = SGP/SGP4

EPOCH          = 2026-03-15T20:03:33.515712
MEAN_MOTION    = 14.26051215
ECCENTRICITY   = .0009903
INCLINATION    = 98.8262
RA_OF_ASC_NODE = 28.2430
ARG_OF_PERICENTER = 3.1200
MEAN_ANOMALY   = 357.0040

EPHEMERIS_TYPE = 0
CLASSIFICATION_TYPE = U
NORAD_CAT_ID   = 25400
ELEMENT_SET_NO = 999
REV_AT_EPOCH   = 43986
BSTAR          = .37146327E-4
MEAN_MOTION_DOT = .43E-6
MEAN_MOTION_DDOT = 0

