COSMOS 2242             
1 22626U 93024A   26074.92090002  .00002154  00000+0  18666-3 0  9998
2 22626  82.5150 260.7546 0014920 286.0908  73.8671 14.96575952781326
SL-16 R/B               
1 22803U 93059B   26074.89979919  .00000139  00000+0  92636-4 0  9993
2 22803  70.9930 358.0313 0018170 207.3910 152.6258 14.17231932680418
ARIANE 40 R/B           
1 22830U 93061H   26074.63416000  .00000182  00000+0  82610-4 0  9994
2 22830  98.4905 143.4042 0009572 265.4443  94.5648 14.32864133694955
COSMOS 2278             
1 23087U 94023A   26074.96283187 -.00000108  00000+0 -31696-4 0  9990
2 23087  71.0547 161.9745 0008493   2.0728 358.0428 14.14379478645690
SL-16 R/B               
1 23088U 94023B   26074.93579611 -.00000138  00000+0 -46639-4 0  9994
2 23088  70.9988  57.7683 0005604 279.4684  80.5805 14.15010099646973
SL-16 R/B               
1 23343U 94074B   26074.83401221  .00000424  00000+0  63503-4 0  9999
2 23343  97.7100 105.4029 0006238 188.7827 344.2153 14.79415144688152
SL-16 R/B               
1 23405U 94077B   26074.98565911  .00000265  00000+0  15965-3 0  9995
2 23405  70.9852 339.2450 0002735 204.2810 155.8184 14.15563289617120
ARIANE 40+ R/B          
1 23561U 95021B   26074.95398343  .00000267  00000+0  99150-4 0  9999
2 23561  98.4485 146.3515 0007848 120.0926  52.7564 14.39777101620141
SL-16 R/B               
1 23705U 95058B   26074.63961340  .00000214  00000+0  13349-3 0  9994
2 23705  71.0224 167.7640 0010533 115.0126 245.2092 14.15499215568693
SL-16 R/B               
1 24298U 96051B   26074.61923319  .00000062  00000+0  60082-4 0  9996
2 24298  70.7602 162.6892 0014573 138.8527 221.3695 14.12417180522485
ORBVIEW 2 (SEASTAR)     
1 24883U 97037A   26074.90017088  .00000260  00000+0  10668-3 0  9994
2 24883  98.8578 239.3768 0002931  59.1509 300.9964 14.35499554509367
SL-16 R/B               
1 25400U 98043G   26074.83580458  .00000043  00000+0  37146-4 0  9996
2 25400  98.8262  28.2430 0009903   3.1200 357.0040 14.26051215439860
